COSMOS 2544 (759)       
1 44850U 19088A   26092.47821141  .00000001  00000+0  00000+0 0  9993
2 44850  65.5087  76.2399 0013076 256.6381 103.2057  2.13086826 49106
BEIDOU-3 M19 (C41)      
1 44864U 19090A   26092.21155124 -.00000041  00000+0  00000+0 0  9999
2 44864  56.4950  65.2997 0020338 293.9443  62.1866  1.86231371 42811
BEIDOU-3 M20 (C42)      
1 44865U 19090B   26092.34794457 -.00000042  00000+0  00000+0 0  9993
2 44865  56.4965  65.3296 0017833 305.7575 231.4249  1.86231443 42800
BEIDOU-3 G2 (C60)       
1 45344U 20017A   26094.90511722 -.00000139  00000+0  00000+0 0  9990
2 45344   2.7179  46.1482 0002856 336.6568 216.2951  1.00272137 22521
COSMOS 2545 (760)       
1 45358U 20018A   26090.32740933 -.00000034  00000+0  00000+0 0  9990
2 45358  64.4015 315.1566 0007330 245.6005 114.3786  2.13102306 47008
BEIDOU-3 G3 (C61)       
1 45807U 20040A   26094.91118391 -.00000352  00000+0  00000+0 0  9993
2 45807   2.2679  67.2275 0004569 327.9741 236.6001  1.00269886 21335
GPS BIII-3  (PRN 23)    
1 45854U 20041A   26094.69425007 -.00000089  00000+0  00000+0 0  9993
2 45854  56.6255  31.7951 0061789 205.1546 336.5424  2.00560344 42565
GALAXY 30 (WAAS/PRN 135)
1 46114U 20056C   26094.72190522  .00000000  00000+0  00000+0 0  9996
2 46114   0.0167 204.0502 0002453 196.6343 287.2366  1.00272100 20550
COSMOS 2547 (705K)      
1 46805U 20075A   26086.76204793 -.00000031  00000+0  00000+0 0  9990
2 46805  64.5985 195.1905 0007370 232.5213 127.4084  2.13100219 42176
GPS BIII-4  (PRN 14)    
1 46826U 20078A   26094.71584429  .00000004  00000+0  00000+0 0  9996
2 46826  53.9939 213.7570 0069919 205.1620 326.2336  2.00565256 40034
GPS BIII-5  (PRN 11)    
1 48859U 21054A   26087.05663564 -.00000088  00000+0  00000+0 0  9999
2 48859  55.2101 335.7223 0023817 231.1961 354.6747  2.00573996 35127
QZS-1R (QZSS/PRN 196)   
1 49336U 21096A   26094.84303661 -.00000241  00000+0  00000+0 0  9991
2 49336  37.3118  80.6625 0750071 270.3917 281.0550  1.00280925 16270
GSAT0223 (GALILEO 27)   
1 49809U 21116A   26089.10262020 -.00000099  00000+0  00000+0 0  9996
2 49809  57.1853 343.8124 0001349 286.9848 256.8884  1.70475617 26836
GSAT0224 (GALILEO 28)   
1 49810U 21116B   26092.44211676 -.00000097  00000+0  00000+0 0  9998
2 49810  57.1862 343.7214 0001081  14.2092 171.7867  1.70475826 26910
COSMOS 2557 (706K)      
1 52984U 22075A   26092.08886449 -.00000045  00000+0  00000+0 0  9998
2 52984  64.3418 317.1673 0010785 282.9879  76.9461  2.13101860 29095
COSMOS 2559 (707K)      
1 54031U 22130A   26092.37757024 -.00000046  00000+0  00000+0 0  9994
2 54031  64.3149 317.2428 0010859 177.9210 182.1370  2.13101452 27076
COSMOS 2564 (761)       
1 54377U 22161A   26093.62878927  .00000015  00000+0  00000+0 0  9991
2 54377  64.7399 195.1849 0010327 215.7841 144.1673  2.13101981 26048
